[{"OBJECT_NAME":"STARLINK-5476","OBJECT_ID":"2023-094AS","EPOCH":"2026-03-09T23:19:37.414848","MEAN_MOTION":15.02881176,"ECCENTRICITY":0.00018758,"INCLINATION":43.0065,"RA_OF_ASC_NODE":15.6796,"ARG_OF_PERICENTER":298.9016,"MEAN_ANOMALY":61.1638,"EPHEMERIS_TYPE":0,"CLASSIFICATION_TYPE":"U","NORAD_CAT_ID":57258,"ELEMENT_SET_NO":999,"REV_AT_EPOCH":14731,"BSTAR":0.0029468621,"MEAN_MOTION_DOT":0.00040201,"MEAN_MOTION_DDOT":0},{"OBJECT_NAME":"ELECTRON KICK STAGE R\/B","OBJECT_ID":"2025-229C","EPOCH":"2026-03-09T11:01:34.584384","MEAN_MOTION":15.04670102,"ECCENTRICITY":0.00392514,"INCLINATION":41.9818,"RA_OF_ASC_NODE":119.4948,"ARG_OF_PERICENTER":118.9737,"MEAN_ANOMALY":241.5033,"EPHEMERIS_TYPE":0,"CLASSIFICATION_TYPE":"U","NORAD_CAT_ID":65973,"ELEMENT_SET_NO":999,"REV_AT_EPOCH":2194,"BSTAR":0.00045211532,"MEAN_MOTION_DOT":6.384e-5,"MEAN_MOTION_DDOT":0}]
